HST                     
1 20580U 90037B   26068.15977042  .00009063  00000+0  30023-3 0  9999
2 20580  28.4717  43.6133 0001837 120.9992 239.0785 15.29473555773239
STARLINK-35301          
1 65843U 25221W   26068.48898276  .00031525  00000+0  10717-2 0  9995
2 65843  53.1586  89.2053 0001335  75.1291 284.9857 15.30210089 24705
